satname,norad_id,inclination_deg,eccentricity,mean_motion_rev_per_day,perigee_km,apogee_km,l1,l2
STARLINK-1443,45660,53.0542,0.0001444,15.06389671,546.2431901134669,548.2432399195641,1 45660U 20035D   25256.07954317 -.00000615  00000+0 -22411-4 0  9994,2 45660  53.0542 143.9441 0001444  96.0704 264.0450 15.06389671291961
STARLINK-1446,45663,53.0256,0.0007751,15.28441965,475.15317006934583,485.7853815180815,1 45663U 20035G   25256.01618116  .00037947  00000+0  13570-2 0  9995,2 45663  53.0256 115.6397 0007751  99.4821 260.7053 15.28441965292351
STARLINK-1448,45665,53.0533,0.0001436,15.0639338,546.2373643926448,548.2263303256059,1 45665U 20035J   25256.08323117 -.00001758  00000+0 -99170-4 0  9993,2 45665  53.0533 143.9253 0001436  90.4697 269.6456 15.06393380291955
STARLINK-1451,45668,53.0541,0.0001466,15.06389662,546.2279818569705,548.258503344101,1 45668U 20035M   25256.08695465 -.00000315  00000+0 -22536-5 0  9995,2 45668  53.0541 144.2265 0001466  94.2184 265.8973 15.06389662291961
STARLINK-1452,45669,53.0526,0.00044,15.21051091,499.64133990846676,505.69644909562885,1 45669U 20035N   25256.02185900  .00030185  00000+0  13509-2 0  9991,2 45669  53.0526 131.4178 0004400 163.1280 196.9862 15.21051091292130
STARLINK-1453,45670,53.0544,0.0001031,15.06403519,546.4867704067328,547.9147750554712,1 45670U 20035P   25255.89800348 -.00002253  00000+0 -13241-3 0  9998,2 45670  53.0544 114.7603 0001031  39.4793 320.6271 15.06403519292241
STARLINK-1454,45671,53.0559,0.0001508,15.06393987,546.1856416369119,548.2743323201839,1 45671U 20035Q   25255.97633882  .00002319  00000+0  17455-3 0  9997,2 45671  53.0559 144.4058 0001508  88.0583 272.0579 15.06393987291931
STARLINK-1456,45673,53.055,0.0001803,15.06385517,546.007298254709,548.5045949512541,1 45673U 20035S   25256.05742631 -.00000328  00000+0 -30861-5 0  9990,2 45673  53.0550 144.0451 0001803  97.4053 262.7141 15.06385517291965
STARLINK-1457,45674,53.0549,0.000148,15.06383136,546.2382849154665,548.2882033877368,1 45674U 20035T   25256.06479556 -.00002194  00000+0 -12847-3 0  9990,2 45674  53.0549 144.0116 0001480 104.6395 255.4759 15.06383136291939
STARLINK-1458,45675,53.0551,0.0001351,15.06388558,546.3110069143922,548.1822455702031,1 45675U 20035U   25255.72200542 -.00000155  00000+0  84590-5 0  9990,2 45675  53.0551 145.5463 0001351  96.3912 263.7231 15.06388558291876
STARLINK-1460,45676,53.0529,0.0001716,15.06398358,546.0281997602378,548.4049811124769,1 45676U 20035V   25255.69251382  .00003446  00000+0  25013-3 0  9993,2 45676  53.0529 145.6789 0001716  87.0323 273.0862 15.06398358291864
STARLINK-1392,45677,53.0547,6.1e-05,15.06403987,546.7768928678206,547.6217839011042,1 45677U 20035W   25255.43817485  .00000696  00000+0  65587-4 0  9993,2 45677  53.0547 146.8224 0000610  90.1458 269.9601 15.06403987291868
STARLINK-1394,45679,53.0536,0.0001563,15.0639197,546.1537330147821,548.3186046673618,1 45679U 20035Y   25256.09889436 -.00000419  00000+0 -92312-5 0  9995,2 45679  53.0536 133.8567 0001563  92.0100 268.1068 15.06391970292101
STARLINK-1402,45685,53.0529,0.0001399,15.06396889,546.2522351244488,548.1899503187915,1 45685U 20035AE  25256.06332054  .00001094  00000+0  92361-4 0  9999,2 45685  53.0529 128.4345 0001399  92.9042 267.2107 15.06396889292181
STARLINK-1404,45686,53.0533,0.0001378,15.0639265,546.2797685858031,548.1884008567522,1 45686U 20035AF  25256.05835190  .00000392  00000+0  45215-4 0  9994,2 45686  53.0533 134.0392 0001378  91.3946 268.7201 15.06392650292100
STARLINK-1413,45689,53.0517,0.0001323,15.06392533,546.3182166704155,548.1506699543152,1 45689U 20035AJ  25256.07677781  .00000055  00000+0  22564-4 0  9997,2 45689  53.0517 133.9535 0001323  93.0142 267.0998 15.06392533292014
STARLINK-1417,45693,53.054,0.0001549,15.06397193,546.1474231781149,548.292898826594,1 45693U 20035AN  25255.94039278  .00001011  00000+0  86762-4 0  9993,2 45693  53.0540 134.5718 0001549  72.5415 287.5743 15.06397193292078
STARLINK-1420,45695,53.0543,0.0001464,15.06390989,546.2253004210324,548.2530505652176,1 45695U 20035AQ  25256.00764228  .00000128  00000+0  27476-4 0  9998,2 45695  53.0543 114.2561 0001464  87.3796 272.7360 15.06390989292376
STARLINK-1422,45696,53.0524,5.86e-05,15.06381979,546.8609615962869,547.6726189205056,1 45696U 20035AR  25256.08415683 -.00002582  00000+0 -15460-3 0  9992,2 45696  53.0524 133.9245 0000586 149.6046 210.4977 15.06381979292098
STARLINK-1351,45697,53.0544,0.000131,15.06390259,546.3341882891109,548.1486374332808,1 45697U 20035AS  25255.99384426  .00001073  00000+0  90921-4 0  9990,2 45697  53.0544 114.3262 0001310  90.5734 269.5405 15.06390259292370
STARLINK-1398,45699,53.0525,0.0008295,15.41253642,436.75065298719255,448.06593763211185,1 45699U 20035AU  25255.82734080  .00079977  00000+0  18821-2 0  9994,2 45699  53.0525  88.2838 0008295 112.4710 247.7174 15.41253642292729
STARLINK-1400,45700,53.0529,0.0001347,15.06398984,546.2818269635009,548.1475167038934,1 45700U 20035AV  25256.03438530  .00001728  00000+0  13487-3 0  9995,2 45700  53.0529 114.1460 0001347  90.2772 269.8371 15.06398984292373
STARLINK-1403,45701,53.055,0.0001329,15.0639336,546.3115271287334,548.1522901846556,1 45701U 20035AW  25255.99752576  .00000873  00000+0  77487-4 0  9990,2 45701  53.0550 114.3109 0001329  89.3800 270.7341 15.06393360292361
STARLINK-1407,45703,53.0451,0.0006655,15.33188792,461.7505988471594,470.86055191499054,1 45703U 20035AY  25255.52106838  .00062890  00000+0  19281-2 0  9998,2 45703  53.0451  85.6492 0006655 185.6183 174.4744 15.33188792292738
STARLINK-1411,45706,53.0545,0.0001282,15.26549229,485.2573318779305,487.0173318166162,1 45706U 20035BB  25256.25002315  .00008480  00000+0  33279-3 0  9996,2 45706  53.0545 108.1203 0001282 105.4133 153.2512 15.26549229  5875
STARLINK-1423,45710,53.0547,0.0001415,15.0639457,546.2482609803819,548.2081393320268,1 45710U 20035BF  25256.02332743 -.00000123  00000+0  10652-4 0  9995,2 45710  53.0547 114.1959 0001415  92.1883 267.9268 15.06394570292378
STARLINK-1433,45711,53.0544,0.0001366,15.06390273,546.2953632674134,548.1873766380859,1 45711U 20035BG  25256.00490245  .00001156  00000+0  96536-4 0  9997,2 45711  53.0544 114.2784 0001366  85.9991 274.1155 15.06390273292368
STARLINK-1434,45712,53.0512,0.000447,15.10882085,530.4190778571874,536.5980890087776,1 45712U 20035BH  25255.98538002  .00016704  00000+0  10071-2 0  9991,2 45712  53.0512 112.8085 0004470  88.7034 271.4469 15.10882085292393
